UNKNOWN                 
1 87991U          26086.37673678 -.00002232  00000+0 -44692-2 0  9990
2 87991  28.6214 180.3235 0895437  32.0163 333.1722 12.35705999535949
UNKNOWN                 
1 88780U 25241B   26077.87414291  .00007938  00000+0  35116-3 0  9998
2 88780  51.6342  29.1833 0004488 186.7062 173.3856 15.22548355  1143
UNKNOWN                 
1 89005U          26087.47970023  .00002436  00000+0  55094-3 0  9997
2 89005  97.8439 273.7690 0190519  66.1480 295.9552 14.46399045549378
UNKNOWN                 
1 89029U          26085.50106780  .00005221  00000+0  47021-3 0  9992
2 89029  98.0437 352.4529 0021816 346.0837  13.9780 14.95876272666580
UNKNOWN                 
1 89101U          26076.08031723 -.00000373  00000+0 -97867-3 0  9998
2 89101 100.4728  14.8267 0146493 257.9915 100.4739 13.04035932567143
UNKNOWN                 
1 89132U          26087.56537018  .00001441  00000+0  19457-2 0  9998
2 89132  63.4178 287.3170 2924305 319.7281  21.9439  8.88041995334503
UNKNOWN                 
1 89146U          26085.28445158  .00003624  00000+0  65658-3 0  9993
2 89146  98.2537  19.1173 0093177  90.7777 270.4102 14.64119471644020
UNKNOWN                 
1 89161U          26079.34553192  .01120648  57617-3  31768-2 0  9999
2 89161  97.6294 106.9899 0009475 106.8536 253.3777 15.93413522563766
UNKNOWN                 
1 89172U          26086.08576851  .00009705  00000+0  15282-2 0  9999
2 89172  82.0615 123.7785 0279410 319.4500  38.6169 14.49498207616991
UNKNOWN                 
1 89183U          26087.56003275  .00000462  00000+0  44471-3 0  9994
2 89183  99.2169   1.2279 0129148 235.0426 123.8543 13.81725948621581
UNKNOWN                 
1 89184U          26087.39142699  .00028802  00000+0  31831-2 0  9993
2 89184  98.3844 322.5078 0009186 139.3818 220.8083 14.87322036507845
UNKNOWN                 
1 89213U          26086.45356608  .00000272  00000+0  19960-3 0  9990
2 89213  98.7687 319.0652 0226889 198.7883 160.4803 13.91720436467235
