CCSDS_OMM_VERS = 2.0
CREATION_DATE  = 
ORIGINATOR     = 

OBJECT_NAME    = UNKNOWN
OBJECT_ID      = 
CENTER_NAME    = EARTH
REF_FRAME      = TEME
TIME_SYSTEM    = UTC
MEAN_ELEMENT_THEORY = SGP/SGP4

EPOCH          = 2026-03-27T09:02:30.057792
MEAN_MOTION    = 12.35705999
ECCENTRICITY   = .0895437
INCLINATION    = 28.6214
RA_OF_ASC_NODE = 180.3235
ARG_OF_PERICENTER = 32.0163
MEAN_ANOMALY   = 333.1722

EPHEMERIS_TYPE = 0
CLASSIFICATION_TYPE = U
NORAD_CAT_ID   = 87991
ELEMENT_SET_NO = 999
REV_AT_EPOCH   = 53594
BSTAR          = -.44692E-2
MEAN_MOTION_DOT = -.2232E-4
MEAN_MOTION_DDOT = 0

CCSDS_OMM_VERS = 2.0
CREATION_DATE  = 
ORIGINATOR     = 

OBJECT_NAME    = UNKNOWN
OBJECT_ID      = 2025-241B
CENTER_NAME    = EARTH
REF_FRAME      = TEME
TIME_SYSTEM    = UTC
MEAN_ELEMENT_THEORY = SGP/SGP4

EPOCH          = 2026-03-18T20:58:45.947424
MEAN_MOTION    = 15.22548355
ECCENTRICITY   = .0004488
INCLINATION    = 51.6342
RA_OF_ASC_NODE = 29.1833
ARG_OF_PERICENTER = 186.7062
MEAN_ANOMALY   = 173.3856

EPHEMERIS_TYPE = 0
CLASSIFICATION_TYPE = U
NORAD_CAT_ID   = 88780
ELEMENT_SET_NO = 999
REV_AT_EPOCH   = 114
BSTAR          = .35116E-3
MEAN_MOTION_DOT = .7938E-4
MEAN_MOTION_DDOT = 0

CCSDS_OMM_VERS = 2.0
CREATION_DATE  = 
ORIGINATOR     = 

OBJECT_NAME    = UNKNOWN
OBJECT_ID      = 
CENTER_NAME    = EARTH
REF_FRAME      = TEME
TIME_SYSTEM    = UTC
MEAN_ELEMENT_THEORY = SGP/SGP4

EPOCH          = 2026-03-28T11:30:46.099872
MEAN_MOTION    = 14.46399045
ECCENTRICITY   = .0190519
INCLINATION    = 97.8439
RA_OF_ASC_NODE = 273.7690
ARG_OF_PERICENTER = 66.1480
MEAN_ANOMALY   = 295.9552

EPHEMERIS_TYPE = 0
CLASSIFICATION_TYPE = U
NORAD_CAT_ID   = 89005
ELEMENT_SET_NO = 999
REV_AT_EPOCH   = 54937
BSTAR          = .55094E-3
MEAN_MOTION_DOT = .2436E-4
MEAN_MOTION_DDOT = 0

CCSDS_OMM_VERS = 2.0
CREATION_DATE  = 
ORIGINATOR     = 

OBJECT_NAME    = UNKNOWN
OBJECT_ID      = 
CENTER_NAME    = EARTH
REF_FRAME      = TEME
TIME_SYSTEM    = UTC
MEAN_ELEMENT_THEORY = SGP/SGP4

EPOCH          = 2026-03-26T12:01:32.257920
MEAN_MOTION    = 14.95876272
ECCENTRICITY   = .0021816
INCLINATION    = 98.0437
RA_OF_ASC_NODE = 352.4529
ARG_OF_PERICENTER = 346.0837
MEAN_ANOMALY   = 13.9780

EPHEMERIS_TYPE = 0
CLASSIFICATION_TYPE = U
NORAD_CAT_ID   = 89029
ELEMENT_SET_NO = 999
REV_AT_EPOCH   = 66658
BSTAR          = .47021E-3
MEAN_MOTION_DOT = .5221E-4
MEAN_MOTION_DDOT = 0

CCSDS_OMM_VERS = 2.0
CREATION_DATE  = 
ORIGINATOR     = 

OBJECT_NAME    = UNKNOWN
OBJECT_ID      = 
CENTER_NAME    = EARTH
REF_FRAME      = TEME
TIME_SYSTEM    = UTC
MEAN_ELEMENT_THEORY = SGP/SGP4

EPOCH          = 2026-03-17T01:55:39.408672
MEAN_MOTION    = 13.04035932
ECCENTRICITY   = .0146493
INCLINATION    = 100.4728
RA_OF_ASC_NODE = 14.8267
ARG_OF_PERICENTER = 257.9915
MEAN_ANOMALY   = 100.4739

EPHEMERIS_TYPE = 0
CLASSIFICATION_TYPE = U
NORAD_CAT_ID   = 89101
ELEMENT_SET_NO = 999
REV_AT_EPOCH   = 56714
BSTAR          = -.97867E-3
MEAN_MOTION_DOT = -.373E-5
MEAN_MOTION_DDOT = 0

CCSDS_OMM_VERS = 2.0
CREATION_DATE  = 
ORIGINATOR     = 

OBJECT_NAME    = UNKNOWN
OBJECT_ID      = 
CENTER_NAME    = EARTH
REF_FRAME      = TEME
TIME_SYSTEM    = UTC
MEAN_ELEMENT_THEORY = SGP/SGP4

EPOCH          = 2026-03-28T13:34:07.983552
MEAN_MOTION    = 8.88041995
ECCENTRICITY   = .2924305
INCLINATION    = 63.4178
RA_OF_ASC_NODE = 287.3170
ARG_OF_PERICENTER = 319.7281
MEAN_ANOMALY   = 21.9439

EPHEMERIS_TYPE = 0
CLASSIFICATION_TYPE = U
NORAD_CAT_ID   = 89132
ELEMENT_SET_NO = 999
REV_AT_EPOCH   = 33450
BSTAR          = .19457E-2
MEAN_MOTION_DOT = .1441E-4
MEAN_MOTION_DDOT = 0

CCSDS_OMM_VERS = 2.0
CREATION_DATE  = 
ORIGINATOR     = 

OBJECT_NAME    = UNKNOWN
OBJECT_ID      = 
CENTER_NAME    = EARTH
REF_FRAME      = TEME
TIME_SYSTEM    = UTC
MEAN_ELEMENT_THEORY = SGP/SGP4

EPOCH          = 2026-03-26T06:49:36.616512
MEAN_MOTION    = 14.64119471
ECCENTRICITY   = .0093177
INCLINATION    = 98.2537
RA_OF_ASC_NODE = 19.1173
ARG_OF_PERICENTER = 90.7777
MEAN_ANOMALY   = 270.4102

EPHEMERIS_TYPE = 0
CLASSIFICATION_TYPE = U
NORAD_CAT_ID   = 89146
ELEMENT_SET_NO = 999
REV_AT_EPOCH   = 64402
BSTAR          = .65658E-3
MEAN_MOTION_DOT = .3624E-4
MEAN_MOTION_DDOT = 0

CCSDS_OMM_VERS = 2.0
CREATION_DATE  = 
ORIGINATOR     = 

OBJECT_NAME    = UNKNOWN
OBJECT_ID      = 
CENTER_NAME    = EARTH
REF_FRAME      = TEME
TIME_SYSTEM    = UTC
MEAN_ELEMENT_THEORY = SGP/SGP4

EPOCH          = 2026-03-20T08:17:33.957888
MEAN_MOTION    = 15.93413522
ECCENTRICITY   = .0009475
INCLINATION    = 97.6294
RA_OF_ASC_NODE = 106.9899
ARG_OF_PERICENTER = 106.8536
MEAN_ANOMALY   = 253.3777

EPHEMERIS_TYPE = 0
CLASSIFICATION_TYPE = U
NORAD_CAT_ID   = 89161
ELEMENT_SET_NO = 999
REV_AT_EPOCH   = 56376
BSTAR          = .31768E-2
MEAN_MOTION_DOT = .1120648E-1
MEAN_MOTION_DDOT = .57617E-3

CCSDS_OMM_VERS = 2.0
CREATION_DATE  = 
ORIGINATOR     = 

OBJECT_NAME    = UNKNOWN
OBJECT_ID      = 
CENTER_NAME    = EARTH
REF_FRAME      = TEME
TIME_SYSTEM    = UTC
MEAN_ELEMENT_THEORY = SGP/SGP4

EPOCH          = 2026-03-27T02:03:30.399264
MEAN_MOTION    = 14.49498207
ECCENTRICITY   = .027941
INCLINATION    = 82.0615
RA_OF_ASC_NODE = 123.7785
ARG_OF_PERICENTER = 319.4500
MEAN_ANOMALY   = 38.6169

EPHEMERIS_TYPE = 0
CLASSIFICATION_TYPE = U
NORAD_CAT_ID   = 89172
ELEMENT_SET_NO = 999
REV_AT_EPOCH   = 61699
BSTAR          = .15282E-2
MEAN_MOTION_DOT = .9705E-4
MEAN_MOTION_DDOT = 0

CCSDS_OMM_VERS = 2.0
CREATION_DATE  = 
ORIGINATOR     = 

OBJECT_NAME    = UNKNOWN
OBJECT_ID      = 
CENTER_NAME    = EARTH
REF_FRAME      = TEME
TIME_SYSTEM    = UTC
MEAN_ELEMENT_THEORY = SGP/SGP4

EPOCH          = 2026-03-28T13:26:26.829600
MEAN_MOTION    = 13.81725948
ECCENTRICITY   = .0129148
INCLINATION    = 99.2169
RA_OF_ASC_NODE = 1.2279
ARG_OF_PERICENTER = 235.0426
MEAN_ANOMALY   = 123.8543

EPHEMERIS_TYPE = 0
CLASSIFICATION_TYPE = U
NORAD_CAT_ID   = 89183
ELEMENT_SET_NO = 999
REV_AT_EPOCH   = 62158
BSTAR          = .44471E-3
MEAN_MOTION_DOT = .462E-5
MEAN_MOTION_DDOT = 0

CCSDS_OMM_VERS = 2.0
CREATION_DATE  = 
ORIGINATOR     = 

OBJECT_NAME    = UNKNOWN
OBJECT_ID      = 
CENTER_NAME    = EARTH
REF_FRAME      = TEME
TIME_SYSTEM    = UTC
MEAN_ELEMENT_THEORY = SGP/SGP4

EPOCH          = 2026-03-28T09:23:39.291936
MEAN_MOTION    = 14.87322036
ECCENTRICITY   = .0009186
INCLINATION    = 98.3844
RA_OF_ASC_NODE = 322.5078
ARG_OF_PERICENTER = 139.3818
MEAN_ANOMALY   = 220.8083

EPHEMERIS_TYPE = 0
CLASSIFICATION_TYPE = U
NORAD_CAT_ID   = 89184
ELEMENT_SET_NO = 999
REV_AT_EPOCH   = 50784
BSTAR          = .31831E-2
MEAN_MOTION_DOT = .28802E-3
MEAN_MOTION_DDOT = 0

CCSDS_OMM_VERS = 2.0
CREATION_DATE  = 
ORIGINATOR     = 

OBJECT_NAME    = UNKNOWN
OBJECT_ID      = 
CENTER_NAME    = EARTH
REF_FRAME      = TEME
TIME_SYSTEM    = UTC
MEAN_ELEMENT_THEORY = SGP/SGP4

EPOCH          = 2026-03-27T10:53:08.109312
MEAN_MOTION    = 13.91720436
ECCENTRICITY   = .0226889
INCLINATION    = 98.7687
RA_OF_ASC_NODE = 319.0652
ARG_OF_PERICENTER = 198.7883
MEAN_ANOMALY   = 160.4803

EPHEMERIS_TYPE = 0
CLASSIFICATION_TYPE = U
NORAD_CAT_ID   = 89213
ELEMENT_SET_NO = 999
REV_AT_EPOCH   = 46723
BSTAR          = .1996E-3
MEAN_MOTION_DOT = .272E-5
MEAN_MOTION_DDOT = 0

